STARLINK-36739          
1 67802U 26032F   26064.66667824  .00027298  00000+0  18344-3 0  9999
2 67802  97.2842 251.0074 0001583 106.5078 246.1655 15.75171523  4134
STARLINK-36768          
1 67803U 26032G   26064.66667824 -.00012004  00000+0 -79693-4 0  9996
2 67803  97.2840 250.9771 0001348  71.1766 211.4791 15.75199337  4134
STARLINK-36792          
1 67804U 26032H   26064.74634546  .00370106  00000+0  23620-2 0  9996
2 67804  97.2840 251.0545 0001273 112.7030 247.4370 15.75329015  4162
STARLINK-36782          
1 67805U 26032J   26064.78989147  .00379786  00000+0  18870-2 0  9995
2 67805  97.2828 251.1476 0001876  58.0548 302.0903 15.80948967  4178
STARLINK-36389          
1 67806U 26032K   26064.66667824  .00011547  00000+0  78174-4 0  9991
2 67806  97.2837 250.9981 0001458  81.8088 250.8396 15.75192563  4135
STARLINK-36382          
1 67807U 26032L   26064.66667824  .00023444  00000+0  15766-3 0  9998
2 67807  97.2836 251.0027 0001534 102.1606 242.4960 15.75182812  4079
STARLINK-36811          
1 67808U 26032M   26064.47022034 -.00353520  00000+0 -20029-2 0  9996
2 67808  97.2826 250.8169 0003804 140.8431 219.3112 15.79878180  4122
STARLINK-36795          
1 67809U 26032N   26064.74000032  .00224439  00000+0  14631-2 0  9997
2 67809  97.2839 251.0619 0001792  50.3404 309.8019 15.75242339  4161
STARLINK-36807          
1 67810U 26032P   26064.66667824 -.00049115  00000+0 -33009-3 0  9997
2 67810  97.2840 251.0222 0001942  84.1977 310.4588 15.75203729  4138
STARLINK-36733          
1 67811U 26032Q   26064.53007219  .00260100  00000+0  13124-2 0  9992
2 67811  97.2821 250.8872 0001575  76.4849 283.6595 15.80918099  4138
STARLINK-36377          
1 67812U 26032R   26064.78010479  .00429755  00000+0  21208-2 0  9997
2 67812  97.2822 251.1596 0001695  62.0600 298.0840 15.80969078  4176
STARLINK-36732          
1 67813U 26032S   26064.71806516 -.00229017  00000+0 -12979-2 0  9992
2 67813  97.2825 251.0897 0003144  57.3673 302.7897 15.79562466  4163
