CCSDS_OMM_VERS = 2.0
CREATION_DATE  = 
ORIGINATOR     = 

OBJECT_NAME    = STARLINK-36739
OBJECT_ID      = 2026-032F
CENTER_NAME    = EARTH
REF_FRAME      = TEME
TIME_SYSTEM    = UTC
MEAN_ELEMENT_THEORY = SGP/SGP4

EPOCH          = 2026-03-05T16:00:00.999936
MEAN_MOTION    = 15.75171523
ECCENTRICITY   = .0001583
INCLINATION    = 97.2842
RA_OF_ASC_NODE = 251.0074
ARG_OF_PERICENTER = 106.5078
MEAN_ANOMALY   = 246.1655

EPHEMERIS_TYPE = 0
CLASSIFICATION_TYPE = U
NORAD_CAT_ID   = 67802
ELEMENT_SET_NO = 999
REV_AT_EPOCH   = 413
BSTAR          = .18344E-3
MEAN_MOTION_DOT = .27298E-3
MEAN_MOTION_DDOT = 0

CCSDS_OMM_VERS = 2.0
CREATION_DATE  = 
ORIGINATOR     = 

OBJECT_NAME    = STARLINK-36768
OBJECT_ID      = 2026-032G
CENTER_NAME    = EARTH
REF_FRAME      = TEME
TIME_SYSTEM    = UTC
MEAN_ELEMENT_THEORY = SGP/SGP4

EPOCH          = 2026-03-05T16:00:00.999936
MEAN_MOTION    = 15.75199337
ECCENTRICITY   = .0001348
INCLINATION    = 97.2840
RA_OF_ASC_NODE = 250.9771
ARG_OF_PERICENTER = 71.1766
MEAN_ANOMALY   = 211.4791

EPHEMERIS_TYPE = 0
CLASSIFICATION_TYPE = U
NORAD_CAT_ID   = 67803
ELEMENT_SET_NO = 999
REV_AT_EPOCH   = 413
BSTAR          = -.79693E-4
MEAN_MOTION_DOT = -.12004E-3
MEAN_MOTION_DDOT = 0

CCSDS_OMM_VERS = 2.0
CREATION_DATE  = 
ORIGINATOR     = 

OBJECT_NAME    = STARLINK-36792
OBJECT_ID      = 2026-032H
CENTER_NAME    = EARTH
REF_FRAME      = TEME
TIME_SYSTEM    = UTC
MEAN_ELEMENT_THEORY = SGP/SGP4

EPOCH          = 2026-03-05T17:54:44.247744
MEAN_MOTION    = 15.75329015
ECCENTRICITY   = .0001273
INCLINATION    = 97.2840
RA_OF_ASC_NODE = 251.0545
ARG_OF_PERICENTER = 112.7030
MEAN_ANOMALY   = 247.4370

EPHEMERIS_TYPE = 0
CLASSIFICATION_TYPE = U
NORAD_CAT_ID   = 67804
ELEMENT_SET_NO = 999
REV_AT_EPOCH   = 416
BSTAR          = .2362E-2
MEAN_MOTION_DOT = .370106E-2
MEAN_MOTION_DDOT = 0

CCSDS_OMM_VERS = 2.0
CREATION_DATE  = 
ORIGINATOR     = 

OBJECT_NAME    = STARLINK-36782
OBJECT_ID      = 2026-032J
CENTER_NAME    = EARTH
REF_FRAME      = TEME
TIME_SYSTEM    = UTC
MEAN_ELEMENT_THEORY = SGP/SGP4

EPOCH          = 2026-03-05T18:57:26.623008
MEAN_MOTION    = 15.80948967
ECCENTRICITY   = .0001876
INCLINATION    = 97.2828
RA_OF_ASC_NODE = 251.1476
ARG_OF_PERICENTER = 58.0548
MEAN_ANOMALY   = 302.0903

EPHEMERIS_TYPE = 0
CLASSIFICATION_TYPE = U
NORAD_CAT_ID   = 67805
ELEMENT_SET_NO = 999
REV_AT_EPOCH   = 417
BSTAR          = .1887E-2
MEAN_MOTION_DOT = .379786E-2
MEAN_MOTION_DDOT = 0

CCSDS_OMM_VERS = 2.0
CREATION_DATE  = 
ORIGINATOR     = 

OBJECT_NAME    = STARLINK-36389
OBJECT_ID      = 2026-032K
CENTER_NAME    = EARTH
REF_FRAME      = TEME
TIME_SYSTEM    = UTC
MEAN_ELEMENT_THEORY = SGP/SGP4

EPOCH          = 2026-03-05T16:00:00.999936
MEAN_MOTION    = 15.75192563
ECCENTRICITY   = .0001458
INCLINATION    = 97.2837
RA_OF_ASC_NODE = 250.9981
ARG_OF_PERICENTER = 81.8088
MEAN_ANOMALY   = 250.8396

EPHEMERIS_TYPE = 0
CLASSIFICATION_TYPE = U
NORAD_CAT_ID   = 67806
ELEMENT_SET_NO = 999
REV_AT_EPOCH   = 413
BSTAR          = .78174E-4
MEAN_MOTION_DOT = .11547E-3
MEAN_MOTION_DDOT = 0

CCSDS_OMM_VERS = 2.0
CREATION_DATE  = 
ORIGINATOR     = 

OBJECT_NAME    = STARLINK-36382
OBJECT_ID      = 2026-032L
CENTER_NAME    = EARTH
REF_FRAME      = TEME
TIME_SYSTEM    = UTC
MEAN_ELEMENT_THEORY = SGP/SGP4

EPOCH          = 2026-03-05T16:00:00.999936
MEAN_MOTION    = 15.75182812
ECCENTRICITY   = .0001534
INCLINATION    = 97.2836
RA_OF_ASC_NODE = 251.0027
ARG_OF_PERICENTER = 102.1606
MEAN_ANOMALY   = 242.4960

EPHEMERIS_TYPE = 0
CLASSIFICATION_TYPE = U
NORAD_CAT_ID   = 67807
ELEMENT_SET_NO = 999
REV_AT_EPOCH   = 407
BSTAR          = .15766E-3
MEAN_MOTION_DOT = .23444E-3
MEAN_MOTION_DDOT = 0

CCSDS_OMM_VERS = 2.0
CREATION_DATE  = 
ORIGINATOR     = 

OBJECT_NAME    = STARLINK-36811
OBJECT_ID      = 2026-032M
CENTER_NAME    = EARTH
REF_FRAME      = TEME
TIME_SYSTEM    = UTC
MEAN_ELEMENT_THEORY = SGP/SGP4

EPOCH          = 2026-03-05T11:17:07.037376
MEAN_MOTION    = 15.79878180
ECCENTRICITY   = .0003804
INCLINATION    = 97.2826
RA_OF_ASC_NODE = 250.8169
ARG_OF_PERICENTER = 140.8431
MEAN_ANOMALY   = 219.3112

EPHEMERIS_TYPE = 0
CLASSIFICATION_TYPE = U
NORAD_CAT_ID   = 67808
ELEMENT_SET_NO = 999
REV_AT_EPOCH   = 412
BSTAR          = -.20029E-2
MEAN_MOTION_DOT = -.35352E-2
MEAN_MOTION_DDOT = 0

CCSDS_OMM_VERS = 2.0
CREATION_DATE  = 
ORIGINATOR     = 

OBJECT_NAME    = STARLINK-36795
OBJECT_ID      = 2026-032N
CENTER_NAME    = EARTH
REF_FRAME      = TEME
TIME_SYSTEM    = UTC
MEAN_ELEMENT_THEORY = SGP/SGP4

EPOCH          = 2026-03-05T17:45:36.027648
MEAN_MOTION    = 15.75242339
ECCENTRICITY   = .0001792
INCLINATION    = 97.2839
RA_OF_ASC_NODE = 251.0619
ARG_OF_PERICENTER = 50.3404
MEAN_ANOMALY   = 309.8019

EPHEMERIS_TYPE = 0
CLASSIFICATION_TYPE = U
NORAD_CAT_ID   = 67809
ELEMENT_SET_NO = 999
REV_AT_EPOCH   = 416
BSTAR          = .14631E-2
MEAN_MOTION_DOT = .224439E-2
MEAN_MOTION_DDOT = 0

CCSDS_OMM_VERS = 2.0
CREATION_DATE  = 
ORIGINATOR     = 

OBJECT_NAME    = STARLINK-36807
OBJECT_ID      = 2026-032P
CENTER_NAME    = EARTH
REF_FRAME      = TEME
TIME_SYSTEM    = UTC
MEAN_ELEMENT_THEORY = SGP/SGP4

EPOCH          = 2026-03-05T16:00:00.999936
MEAN_MOTION    = 15.75203729
ECCENTRICITY   = .0001942
INCLINATION    = 97.2840
RA_OF_ASC_NODE = 251.0222
ARG_OF_PERICENTER = 84.1977
MEAN_ANOMALY   = 310.4588

EPHEMERIS_TYPE = 0
CLASSIFICATION_TYPE = U
NORAD_CAT_ID   = 67810
ELEMENT_SET_NO = 999
REV_AT_EPOCH   = 413
BSTAR          = -.33009E-3
MEAN_MOTION_DOT = -.49115E-3
MEAN_MOTION_DDOT = 0

CCSDS_OMM_VERS = 2.0
CREATION_DATE  = 
ORIGINATOR     = 

OBJECT_NAME    = STARLINK-36733
OBJECT_ID      = 2026-032Q
CENTER_NAME    = EARTH
REF_FRAME      = TEME
TIME_SYSTEM    = UTC
MEAN_ELEMENT_THEORY = SGP/SGP4

EPOCH          = 2026-03-05T12:43:18.237216
MEAN_MOTION    = 15.80918099
ECCENTRICITY   = .0001575
INCLINATION    = 97.2821
RA_OF_ASC_NODE = 250.8872
ARG_OF_PERICENTER = 76.4849
MEAN_ANOMALY   = 283.6595

EPHEMERIS_TYPE = 0
CLASSIFICATION_TYPE = U
NORAD_CAT_ID   = 67811
ELEMENT_SET_NO = 999
REV_AT_EPOCH   = 413
BSTAR          = .13124E-2
MEAN_MOTION_DOT = .2601E-2
MEAN_MOTION_DDOT = 0

CCSDS_OMM_VERS = 2.0
CREATION_DATE  = 
ORIGINATOR     = 

OBJECT_NAME    = STARLINK-36377
OBJECT_ID      = 2026-032R
CENTER_NAME    = EARTH
REF_FRAME      = TEME
TIME_SYSTEM    = UTC
MEAN_ELEMENT_THEORY = SGP/SGP4

EPOCH          = 2026-03-05T18:43:21.053856
MEAN_MOTION    = 15.80969078
ECCENTRICITY   = .0001695
INCLINATION    = 97.2822
RA_OF_ASC_NODE = 251.1596
ARG_OF_PERICENTER = 62.0600
MEAN_ANOMALY   = 298.0840

EPHEMERIS_TYPE = 0
CLASSIFICATION_TYPE = U
NORAD_CAT_ID   = 67812
ELEMENT_SET_NO = 999
REV_AT_EPOCH   = 417
BSTAR          = .21208E-2
MEAN_MOTION_DOT = .429755E-2
MEAN_MOTION_DDOT = 0

CCSDS_OMM_VERS = 2.0
CREATION_DATE  = 
ORIGINATOR     = 

OBJECT_NAME    = STARLINK-36732
OBJECT_ID      = 2026-032S
CENTER_NAME    = EARTH
REF_FRAME      = TEME
TIME_SYSTEM    = UTC
MEAN_ELEMENT_THEORY = SGP/SGP4

EPOCH          = 2026-03-05T17:14:00.829824
MEAN_MOTION    = 15.79562466
ECCENTRICITY   = .0003144
INCLINATION    = 97.2825
RA_OF_ASC_NODE = 251.0897
ARG_OF_PERICENTER = 57.3673
MEAN_ANOMALY   = 302.7897

EPHEMERIS_TYPE = 0
CLASSIFICATION_TYPE = U
NORAD_CAT_ID   = 67813
ELEMENT_SET_NO = 999
REV_AT_EPOCH   = 416
BSTAR          = -.12979E-2
MEAN_MOTION_DOT = -.229017E-2
MEAN_MOTION_DDOT = 0

